NORAD_CAT_ID,OBJECT_NAME,OBJECT_TYPE,EPOCH,MEAN_MOTION,ECCENTRICITY,INCLINATION,RA_OF_ASC_NODE,ARG_OF_PERICENTER,MEAN_ANOMALY,BSTAR,MEAN_MOTION_DOT,MEAN_MOTION_DDOT,TLE_LINE0,TLE_LINE1,TLE_LINE2,SEMIMAJOR_AXIS,PERIOD,APOGEE,PERIGEE,DECAYED
53419.0,STARLINK-4476,PAYLOAD,2022-12-11 10:39:10,15.08826495,0.000244,53.2195,30.3996,31.1077,329.006,-2.2614e-05,-6.48e-06,0.0,0 STARLINK-4476,1 53419U 22097AH  22345.44386612 -.00000648  00000-0 -22614-4 0  9991,2 53419  53.2195  30.3996 0002440  31.1077 329.0060 15.08826495 19387,6917.922,95.438,541.475,538.099,0.0
53419.0,STARLINK-4476,PAYLOAD,2022-12-12 04:08:23,15.08839488,0.0002299,53.2193,27.1298,36.2925,323.8223,0.00013259,1.823e-05,0.0,0 STARLINK-4476,1 53419U 22097AH  22346.17249586  .00001823  00000-0  13259-3 0  9998,2 53419  53.2193  27.1298 0002299  36.2925 323.8223 15.08839488 19495,6917.882,95.438,541.337,538.1569999999998,0.0
53419.0,STARLINK-4476,PAYLOAD,2022-12-12 10:29:55,15.08846783,0.0002376,53.2196,25.9412,36.3216,323.7937,0.00025959,3.846e-05,0.0,0 STARLINK-4476,1 53419U 22097AH  22346.43745331  .00003846  00000-0  25959-3 0  9993,2 53419  53.2196  25.9412 0002376  36.3216 323.7937 15.08846783 19994,6917.86,95.437,541.368,538.081,0.0
53419.0,STARLINK-4476,PAYLOAD,2022-12-13 07:09:57,15.08839763,0.0002467,53.2207,22.0772,33.1922,326.9225,0.00025014,3.695e-05,0.0,0 STARLINK-4476,1 53419U 22097AH  22347.29857791  .00003695  00000-0  25014-3 0  9996,2 53419  53.2207  22.0772 0002467  33.1922 326.9225 15.08839763 19663,6917.880999999999,95.438,541.453,538.039,0.0
53419.0,STARLINK-4476,PAYLOAD,2022-12-13 08:45:20,15.08841408,0.0002466,53.2208,21.7797,35.9841,324.1317,0.0002491,3.679e-05,0.0,0 STARLINK-4476,1 53419U 22097AH  22347.36481715  .00003679  00000-0  24910-3 0  9999,2 53419  53.2208  21.7797 0002466  35.9841 324.1317 15.08841408 20131,6917.876,95.437,541.447,538.035,0.0
53419.0,STARLINK-4476,PAYLOAD,2022-12-14 11:46:53,15.08843909,0.0002431,53.22,16.7234,36.3283,323.7874,-2.3337e-05,-6.6e-06,0.0,0 STARLINK-4476,1 53419U 22097AH  22348.49089575 -.00000660  00000-0 -23337-4 0  9994,2 53419  53.2200  16.7234 0002431  36.3283 323.7874 15.08843909 19847,6917.868,95.437,541.415,538.052,0.0
53419.0,STARLINK-4476,PAYLOAD,2022-12-15 11:37:40,15.08838449,0.0002502,53.2193,12.2637,34.7533,325.3622,3.042e-05,1.96e-06,0.0,0 STARLINK-4476,1 53419U 22097AH  22349.48449728  .00000196  00000-0  30420-4 0  9997,2 53419  53.2193  12.2637 0002502  34.7533 325.3622 15.08838449 20456,6917.885,95.438,541.481,538.019,0.0
53419.0,STARLINK-4476,PAYLOAD,2022-12-15 13:13:03,15.08837402,0.0002575,53.2193,11.9665,34.287,325.8288,1.0212e-05,-1.26e-06,0.0,0 STARLINK-4476,1 53419U 22097AH  22349.55073840 -.00000126  00000-0  10212-4 0  9994,2 53419  53.2193  11.9665 0002575  34.2870 325.8288 15.08837402 20004,6917.888000000001,95.438,541.535,537.972,0.0
53419.0,STARLINK-4476,PAYLOAD,2022-12-16 05:06:54,15.08849502,0.0002425,53.2196,8.9924,34.7526,325.3624,9.4976e-05,1.224e-05,0.0,0 STARLINK-4476,1 53419U 22097AH  22350.21312915  .00001224  00000-0  94976-4 0  9996,2 53419  53.2196   8.9924 0002425  34.7526 325.3624 15.08849502 20102,6917.851,95.437,541.394,538.039,0.0
53419.0,STARLINK-4476,PAYLOAD,2022-12-16 11:28:27,15.08848253,0.0002436,53.2199,7.8036,35.3687,324.7466,8.4257e-05,1.053e-05,0.0,0 STARLINK-4476,1 53419U 22097AH  22350.47809077  .00001053  00000-0  84257-4 0  9995,2 53419  53.2199   7.8036 0002436  35.3687 324.7466 15.08848253 20608,6917.855,95.437,541.405,538.035,0.0
53419.0,STARLINK-4476,PAYLOAD,2022-12-16 17:50:00,15.08834377,0.0002478,53.2187,6.6136,35.4259,324.6897,3.5461e-06,-2.32e-06,0.0,0 STARLINK-4476,1 53419U 22097AH  22350.74305807 -.00000232  00000-0  35461-5 0  9990,2 53419  53.2187   6.6136 0002478  35.4259 324.6897 15.08834377 20187,6917.898,95.438,541.477,538.048,0.0
53419.0,STARLINK-4476,PAYLOAD,2022-12-17 08:08:29,15.08825594,0.0002353,53.2195,3.9376,33.9476,326.1666,-1.66e-05,-5.52e-06,0.0,0 STARLINK-4476,1 53419U 22097AH  22351.33922983 -.00000552  00000-0 -16600-4 0  9995,2 53419  53.2195   3.9376 0002353  33.9476 326.1666 15.08825594 20731,6917.924,95.438,541.4169999999998,538.1619999999998,0.0
53419.0,STARLINK-4476,PAYLOAD,2022-12-17 17:40:47,15.08834609,0.0002459,53.2194,2.1537,33.2581,326.8566,5.1196e-05,5.26e-06,0.0,0 STARLINK-4476,1 53419U 22097AH  22351.73666508  .00000526  00000-0  51196-4 0  9995,2 53419  53.2194   2.1537 0002459  33.2581 326.8566 15.08834609 20336,6917.897,95.438,541.4630000000002,538.061,0.0
53419.0,STARLINK-4476,PAYLOAD,2022-12-18 09:34:38,15.08838768,0.0002384,53.219,359.1801,31.1312,328.9821,3.4251e-05,2.57e-06,0.0,0 STARLINK-4476,1 53419U 22097AH  22352.39906228  .00000257  00000-0  34251-4 0  9998,2 53419  53.2190 359.1801 0002384  31.1312 328.9821 15.08838768 20895,6917.884,95.438,541.398,538.1,0.0
53419.0,STARLINK-4476,PAYLOAD,2022-12-18 17:31:34,15.08837262,0.0002411,53.2188,357.6929,31.3231,328.7904,0.00010981,1.46e-05,0.0,0 STARLINK-4476,1 53419U 22097AH  22352.73026424  .00001460  00000-0  10981-3 0  9997,2 53419  53.2188 357.6929 0002411  31.3231 328.7904 15.08837262 20943,6917.889,95.438,541.422,538.086,0.0
53419.0,STARLINK-4476,PAYLOAD,2022-12-19 04:39:17,15.08832617,0.0002351,53.2189,355.6107,25.3428,334.7679,0.00019076,2.748e-05,0.0,0 STARLINK-4476,1 53419U 22097AH  22353.19394830  .00002748  00000-0  19076-3 0  9991,2 53419  53.2189 355.6107 0002351  25.3428 334.7679 15.08832617 20556,6917.903,95.438,541.394,538.1419999999998,0.0
53419.0,STARLINK-4476,PAYLOAD,2022-12-19 07:50:03,15.08832669,0.0002325,53.2196,355.0159,32.4817,327.6318,0.00018601,2.673e-05,0.0,0 STARLINK-4476,1 53419U 22097AH  22353.32642970  .00002673  00000-0  18601-3 0  9997,2 53419  53.2196 355.0159 0002325  32.4817 327.6318 15.08832669 21039,6917.903,95.438,541.376,538.159,0.0
53419.0,STARLINK-4476,PAYLOAD,2022-12-19 17:22:21,15.08849007,0.0002431,53.2202,353.2318,32.026,328.088,0.00023388,3.437e-05,0.0,0 STARLINK-4476,1 53419U 22097AH  22353.72385923  .00003437  00000-0  23388-3 0  9990,2 53419  53.2202 353.2318 0002431  32.0260 328.0880 15.08849007 21099,6917.853,95.437,541.4,538.036,0.0
53419.0,STARLINK-4476,PAYLOAD,2022-12-20 12:26:58,15.08853583,0.0002379,53.2186,349.6645,31.3865,328.7269,0.0002356,3.465e-05,0.0,0 STARLINK-4476,1 53419U 22097AH  22354.51873522  .00003465  00000-0  23560-3 0  9998,2 53419  53.2186 349.6645 0002379  31.3865 328.7269 15.08853583 21212,6917.839,95.437,541.35,538.058,0.0
53419.0,STARLINK-4476,PAYLOAD,2022-12-20 23:34:40,15.08843678,0.000232,53.2187,347.5823,31.9425,328.1708,5.2588e-05,5.49e-06,0.0,0 STARLINK-4476,1 53419U 22097AH  22354.98241750  .00000549  00000-0  52588-4 0  9994,2 53419  53.2187 347.5823 0002320  31.9425 328.1708 15.08843678 20824,6917.869000000002,95.437,541.339,538.129,0.0
53419.0,STARLINK-4476,PAYLOAD,2022-12-21 05:56:13,15.0883176,0.0002333,53.2186,346.3929,31.9235,328.1898,-0.00016244,-2.872e-05,0.0,0 STARLINK-4476,1 53419U 22097AH  22355.24738297 -.00002872  00000-0 -16244-3 0  9992,2 53419  53.2186 346.3929 0002333  31.9235 328.1898 15.08831760 20863,6917.906,95.438,541.385,538.1569999999998,0.0
53419.0,STARLINK-4476,PAYLOAD,2022-12-21 10:42:23,15.08835119,0.0002361,53.2191,345.501,32.1719,327.9417,-1.2675e-05,-4.9000000000000005e-06,0.0,0 STARLINK-4476,1 53419U 22097AH  22355.44610485 -.00000490  00000-0 -12675-4 0  9991,2 53419  53.2191 345.5010 0002361  32.1719 327.9417 15.08835119 21353,6917.895,95.438,541.394,538.127,0.0
53419.0,STARLINK-4476,PAYLOAD,2022-12-22 10:33:10,15.08841717,0.0002394,53.2199,341.0411,32.943000000000005,327.1711,-2.2667e-05,-6.49e-06,0.0,0 STARLINK-4476,1 53419U 22097AH  22356.43970589 -.00000649  00000-0 -22667-4 0  9993,2 53419  53.2199 341.0411 0002394  32.9430 327.1711 15.08841717 21047,6917.875,95.437,541.396,538.0840000000002,0.0
53419.0,STARLINK-4476,PAYLOAD,2022-12-23 05:37:49,15.08826559,0.0002374,53.2196,337.4727,31.676,328.4375,1.0644e-06,-2.71e-06,0.0,0 STARLINK-4476,1 53419U 22097AH  22357.23459806 -.00000271  00000-0  10644-5 0  9999,2 53419  53.2196 337.4727 0002374  31.6760 328.4375 15.08826559 21163,6917.920999999999,95.438,541.429,538.144,0.0
53419.0,STARLINK-4476,PAYLOAD,2022-12-23 18:20:54,15.08834037,0.0002351,53.2196,335.0941,31.5377,328.5756,0.00011532,1.547e-05,0.0,0 STARLINK-4476,1 53419U 22097AH  22357.76451475  .00001547  00000-0  11532-3 0  9992,2 53419  53.2196 335.0941 0002351  31.5377 328.5756 15.08834037 21707,6917.899,95.438,541.39,538.137,0.0
53419.0,STARLINK-4476,PAYLOAD,2022-12-23 23:07:03,15.08839326,0.0002436,53.2194,334.2019,33.2418,326.8727,0.00017621,2.517e-05,0.0,0 STARLINK-4476,1 53419U 22097AH  22357.96323090  .00002517  00000-0  17621-3 0  9998,2 53419  53.2194 334.2019 0002436  33.2418 326.8727 15.08839326 21278,6917.882,95.438,541.433,538.062,0.0
53419.0,STARLINK-4476,PAYLOAD,2022-12-24 03:53:12,15.08844816,0.0002369,53.2195,333.3099,33.0087,327.1053,0.00021265,3.098e-05,0.0,0 STARLINK-4476,1 53419U 22097AH  22358.16194677  .00003098  00000-0  21265-3 0  9992,2 53419  53.2195 333.3099 0002369  33.0087 327.1053 15.08844816 21762,6917.866,95.437,541.37,538.092,0.0
53419.0,STARLINK-4476,PAYLOAD,2022-12-24 15:00:54,15.08844535,0.0002408,53.2195,331.2285,32.2762,327.8377,0.00014001,1.941e-05,0.0,0 STARLINK-4476,1 53419U 22097AH  22358.62562833  .00001941  00000-0  14001-3 0  9991,2 53419  53.2195 331.2285 0002408  32.2762 327.8377 15.08844535 21833,6917.8669999999975,95.437,541.3969999999998,538.066,0.0
53419.0,STARLINK-4476,PAYLOAD,2022-12-25 05:19:23,15.08834507,0.0002248,53.2195,328.5528,32.5892,327.5238,0.00013778,1.905e-05,0.0,0 STARLINK-4476,1 53419U 22097AH  22359.22179463  .00001905  00000-0  13778-3 0  9991,2 53419  53.2195 328.5528 0002248  32.5892 327.5238 15.08834507 21461,6917.897,95.438,541.317,538.207,0.0
